[{"OBJECT_NAME":"STARLINK-35844","OBJECT_ID":"2025-283C","EPOCH":"2026-03-09T03:33:07.013376","MEAN_MOTION":15.30201934,"ECCENTRICITY":0.00010057,"INCLINATION":53.162,"RA_OF_ASC_NODE":26.5109,"ARG_OF_PERICENTER":78.7465,"MEAN_ANOMALY":281.3648,"EPHEMERIS_TYPE":0,"CLASSIFICATION_TYPE":"U","NORAD_CAT_ID":66880,"ELEMENT_SET_NO":999,"REV_AT_EPOCH":1576,"BSTAR":0.00062349324,"MEAN_MOTION_DOT":0.00018153,"MEAN_MOTION_DDOT":0},{"OBJECT_NAME":"TRANSPORTER-1 OBJECT L","OBJECT_ID":"2021-006L","EPOCH":"2026-03-09T22:38:42.795168","MEAN_MOTION":15.33192932,"ECCENTRICITY":0.00114726,"INCLINATION":97.2368,"RA_OF_ASC_NODE":117.6447,"ARG_OF_PERICENTER":180.5165,"MEAN_ANOMALY":179.6068,"EPHEMERIS_TYPE":0,"CLASSIFICATION_TYPE":"U","NORAD_CAT_ID":47423,"ELEMENT_SET_NO":999,"REV_AT_EPOCH":28445,"BSTAR":0.00025636794,"MEAN_MOTION_DOT":8.162e-5,"MEAN_MOTION_DDOT":0}]
